STARLINK-36871          
1 68023U 26040J   26068.91668981 -.01169220  46805-3 -16560-2 0  9990
2 68023  97.2770  17.1185 0000888  95.0018 273.2998 16.05731616  2461
STARLINK-36790          
1 68095U 26042AC  26068.75002315 -.01275566  53806-3 -19625-2 0  9991
2 68095  53.1605 194.9561 0000779  61.4448  12.6679 16.03663044  2056
